{"spkid": "20385343", "covariance": {"labels": ["e", "q", "tp", "node", "peri", "i"], "elements": [{"label": "e", "sigma": 6.59625739121499e-10, "name": "e", "title": "eccentricity", "value": ".6051468365737469", "units": null}, {"units": "au", "value": ".9137680444752612", "title": "perihelion distance", "sigma": 1.43834345957637e-09, "name": "q", "label": "q"}, {"label": "tp", "title": "time of perihelion passage", "value": "2457668.809537520650", "units": "TDB", "sigma": 4.28009878324458e-07, "name": "tp"}, {"name": "om", "sigma": 5.9251616063804e-07, "title": "longitude of the ascending node", "value": "132.2022433073555", "units": "deg", "label": "node"}, {"value": "224.2005928733549", "title": "argument of perihelion", "units": "deg", "sigma": 7.1951897294163e-07, "name": "w", "label": "peri"}, {"name": "i", "sigma": 4.196814690912e-07, "title": "inclination", "value": "29.54083464924761", "units": "deg", "label": "i"}], "data": [["4.351061157115837E-19", "-9.203959342438952E-19", "2.030988619448878E-16", "-2.586287713857552E-16", "2.863386391141033E-16", "1.654616660856074E-16"], ["-9.203959342438952E-19", "2.068831907706119E-18", "-4.527360396849294E-16", "5.767704301658763E-16", "-6.385938721798397E-16", "-3.676577184373933E-16"], ["2.030988619448878E-16", "-4.527360396849294E-16", "1.831924559433175E-13", "-2.095538583731682E-13", "2.770293179562789E-13", "1.007389596447348E-13"], ["-2.586287713857552E-16", "5.767704301658763E-16", "-2.095538583731682E-13", "3.510754006172436E-13", "-4.042492446687933E-13", "-1.776673688242769E-13"], ["2.863386391141033E-16", "-6.385938721798397E-16", "2.770293179562789E-13", "-4.042492446687933E-13", "5.177075524229787E-13", "1.546349522201476E-13"], ["1.654616660856074E-16", "-3.676577184373933E-16", "1.007389596447348E-13", "-1.776673688242769E-13", "1.546349522201476E-13", "1.761325354985482E-13"]], "epoch": "2458186.5"}, "elements": [{"label": "e", "sigma": "6.6426E-10", "name": "e", "title": "eccentricity", "value": ".6050551059388053", "units": null}, {"sigma": "9.276E-10", "name": "a", "value": "2.31463003245143", "title": "semi-major axis", "units": "au", "label": "a"}, {"sigma": "1.4522E-9", "name": "q", "units": "au", "title": "perihelion distance", "value": ".9141513129573896", "label": "q"}, {"label": "i", "units": "deg", "title": "inclination; angle with respect to x-y ecliptic plane", "value": "29.5309195292078", "sigma": "4.1977E-7", "name": "i"}, {"units": "deg", "title": "longitude of the ascending node", "value": "132.1391425381684", "name": "om", "sigma": "5.9268E-7", "label": "node"}, {"name": "w", "sigma": "7.1959E-7", "units": "deg", "title": "argument of perihelion", "value": "224.2162364030364", "label": "peri"}, {"name": "ma", "sigma": "6.277E-7", "units": "deg", "title": "mean anomaly", "value": "268.4827711160875", "label": "M"}, {"title": "time of perihelion passage", "value": "2461527.479980175705", "units": "TDB", "sigma": "2.436E-6", "name": "tp", "label": "tp"}, {"label": "period", "sigma": "7.732E-7", "name": "per", "value": "1286.236420167068", "title": "sidereal orbital period", "units": "d"}, {"label": "n", "units": "deg/d", "value": ".2798863368782855", "title": "mean motion", "sigma": "1.6825E-10", "name": "n"}, {"label": "Q", "title": "aphelion distance", "value": "3.71510875194547", "units": "au", "sigma": "1.4888E-9", "name": "ad"}], "epoch": "2461200.5"}